NORAD_CAT_ID,OBJECT_NAME,OBJECT_TYPE,EPOCH,MEAN_MOTION,ECCENTRICITY,INCLINATION,RA_OF_ASC_NODE,ARG_OF_PERICENTER,MEAN_ANOMALY,BSTAR,MEAN_MOTION_DOT,MEAN_MOTION_DDOT,TLE_LINE0,TLE_LINE1,TLE_LINE2,SEMIMAJOR_AXIS,PERIOD,APOGEE,PERIGEE,DECAYED
53863.0,STARLINK-4788,PAYLOAD,2022-12-24 10:00:00,15.39146963,0.0001506,53.2176,143.6045,58.1023,128.1733,-0.031683,-0.01139649,0.0,0 STARLINK-4788,1 53863U 22114AX  22358.41667824 -.01139649  00000-0 -31683-1 0  9990,2 53863  53.2176 143.6045 0001506  58.1023 128.1733 15.39146963 15722,6826.768,93.558,449.661,447.604,0.0
53863.0,STARLINK-4788,PAYLOAD,2022-12-24 14:00:01,15.38749956,0.0001479,53.2171,142.822,47.6381,342.51199999999994,-0.032578,-0.01155127,0.0,0 STARLINK-4788,1 53863U 22114AX  22358.58334491 -.01155127  00000-0 -32578-1 0  9992,2 53863  53.2171 142.8220 0001479  47.6381 342.5120 15.38749956  1303,6827.941999999999,93.582,450.817,448.797,0.0
53863.0,STARLINK-4788,PAYLOAD,2022-12-24 22:00:00,15.37949786,0.0001525,53.2165,141.2577,38.6269,38.5396,-0.033962,-0.01171403,0.0,0 STARLINK-4788,1 53863U 22114AX  22358.91667824 -.01171403  00000-0 -33962-1 0  9991,2 53863  53.2165 141.2577 0001525  38.6269  38.5396 15.37949786  1300,6830.31,93.631,453.216,451.133,0.0
53863.0,STARLINK-4788,PAYLOAD,2022-12-25 08:00:01,15.36907707,0.0001516,53.2172,139.3011,55.4441,169.142,-0.034066,-0.01138731,0.0,0 STARLINK-4788,1 53863U 22114AX  22359.33334491 -.01138731  00000-0 -34066-1 0  9992,2 53863  53.2172 139.3011 0001516  55.4441 169.1420 15.36907707 15869,6833.397,93.695,456.298,454.226,0.0
53863.0,STARLINK-4788,PAYLOAD,2022-12-25 14:00:01,15.36309148,0.0001455,53.217,138.1314,58.5814,109.7081,-0.035248,-0.01154083,0.0,0 STARLINK-4788,1 53863U 22114AX  22359.58334491 -.01154083  00000-0 -35248-1 0  9990,2 53863  53.2170 138.1314 0001455  58.5814 109.7081 15.36309148  1302,6835.172,93.731,458.031,456.042,0.0
53863.0,STARLINK-4788,PAYLOAD,2022-12-26 00:00:00,15.35283236,0.0001366,53.2168,136.1822,48.9503,264.3047,-0.036054,-0.01143011,0.0,0 STARLINK-4788,1 53863U 22114AX  22360.00001157 -.01143011  00000-0 -36054-1 0  9994,2 53863  53.2168 136.1822 0001366  48.9503 264.3047 15.35283236  1308,6838.215999999999,93.794,461.015,459.147,0.0
53863.0,STARLINK-4788,PAYLOAD,2022-12-26 06:00:00,15.34675953,0.0001564999999999,53.2171,135.0132,49.6849,205.8119,-0.036854,-0.01145602,0.0,0 STARLINK-4788,1 53863U 22114AX  22360.25001157 -.01145602  00000-0 -36854-1 0  9997,2 53863  53.2171 135.0132 0001565  49.6849 205.8119 15.34675953 16009,6840.02,93.831,462.956,460.815,0.0
53863.0,STARLINK-4788,PAYLOAD,2022-12-26 14:00:01,15.33866688,0.0001324,53.217,133.4582,61.9741,235.6553,-0.038039,-0.01151586,0.0,0 STARLINK-4788,1 53863U 22114AX  22360.58334491 -.01151586  00000-0 -38039-1 0  9998,2 53863  53.2170 133.4582 0001324  61.9741 235.6553 15.33866688  1306,6842.426,93.88,465.197,463.385,0.0
53863.0,STARLINK-4788,PAYLOAD,2022-12-27 00:00:00,15.3283902,0.0001543,53.2171,131.516,44.0626,34.8662,-0.038774,-0.01137484,0.0,0 STARLINK-4788,1 53863U 22114AX  22361.00001157 -.01137484  00000-0 -38774-1 0  9993,2 53863  53.2171 131.5160 0001543  44.0626  34.8662 15.32839020  1304,6845.484,93.943,468.405,466.292,0.0
53863.0,STARLINK-4788,PAYLOAD,2022-12-27 08:00:01,15.32025674,0.0001582,53.2174,129.9629,49.25100000000001,69.6773,-0.039791,-0.01137678,0.0,0 STARLINK-4788,1 53863U 22114AX  22361.33335648 -.01137678  00000-0 -39791-1 0  9999,2 53863  53.2174 129.9629 0001582  49.2510  69.6773 15.32025674 16172,6847.906,93.993,470.855,468.68800000000016,0.0
53863.0,STARLINK-4788,PAYLOAD,2022-12-27 14:00:01,15.31422083,0.0001492,53.2171,128.8022,50.0422,8.1281,-0.040935,-0.01147408,0.0,0 STARLINK-4788,1 53863U 22114AX  22361.58334491 -.01147408  00000-0 -40935-1 0  9995,2 53863  53.2171 128.8022 0001492  50.0422   8.1281 15.31422083  1301,6849.706,94.03,472.593,470.549,0.0
53863.0,STARLINK-4788,PAYLOAD,2022-12-27 22:00:00,15.30628974,0.0001568,53.2167,127.2547,42.7333,53.65,-0.04303,-0.01173936,0.0,0 STARLINK-4788,1 53863U 22114AX  22361.91667824 -.01173936  00000-0 -43030-1 0  9995,2 53863  53.2167 127.2547 0001568  42.7333  53.6500 15.30628974  1309,6852.071999999999,94.079,475.011,472.862,0.0
53863.0,STARLINK-4788,PAYLOAD,2022-12-28 08:00:01,15.29584051,0.0001653,53.2173,125.32,48.4594,184.3433,-0.042883,-0.01136066,0.0,0 STARLINK-4788,1 53863U 22114AX  22362.33334491 -.01136066  00000-0 -42883-1 0  9991,2 53863  53.2173 125.3200 0001653  48.4594 184.3433 15.29584051 16328,6855.191999999999,94.143,478.19,475.924,0.0
53863.0,STARLINK-4788,PAYLOAD,2022-12-28 14:00:01,15.289782,0.0001602,53.2171,124.1636,57.6617,112.2478,-0.0439839999999999,-0.01142888,0.0,0 STARLINK-4788,1 53863U 22114AX  22362.58334491 -.01142888  00000-0 -43984-1 0  9990,2 53863  53.2171 124.1636 0001602  57.6617 112.2478 15.28978200  1301,6857.003000000002,94.181,479.966,477.769,0.0
53863.0,STARLINK-4788,PAYLOAD,2022-12-28 22:00:00,15.28196939,0.0001633,53.2167,122.6216,43.2331,161.9507,-0.046968,-0.01203376,0.0,0 STARLINK-4788,1 53863U 22114AX  22362.91667824 -.01203376  00000-0 -46968-1 0  9991,2 53863  53.2167 122.6216 0001633  43.2331 161.9507 15.28196939  1306,6859.339,94.229,482.325,480.084,0.0
53863.0,STARLINK-4788,PAYLOAD,2022-12-29 08:00:01,15.27141414,0.0001524,53.2175,120.6943,43.831,294.1098,-0.046119,-0.01133406,0.0,0 STARLINK-4788,1 53863U 22114AX  22363.33334491 -.01133406  00000-0 -46119-1 0  9993,2 53863  53.2175 120.6943 0001524  43.8310 294.1098 15.27141414 16477,6862.5,94.294,485.411,483.319,0.0
53863.0,STARLINK-4788,PAYLOAD,2022-12-29 14:00:01,15.26537482,0.0001441999999999,53.2172,119.5422,58.9796,213.8669,-0.047415,-0.01158313,0.0,0 STARLINK-4788,1 53863U 22114AX  22363.58334491 -.01158313  00000-0 -47415-1 0  9994,2 53863  53.2172 119.5422 0001442  58.9796 213.8669 15.26537482  1308,6864.31,94.331,487.164,485.185,0.0
53863.0,STARLINK-4788,PAYLOAD,2022-12-30 08:00:01,15.24699366,0.0001715,53.2173,116.0858,38.6702,35.6081,-0.049612,-0.01147321,0.0,0 STARLINK-4788,1 53863U 22114AX  22364.33334491 -.01147321  00000-0 -49612-1 0  9996,2 53863  53.2173 116.0858 0001715  38.6702  35.6081 15.24699366 16637,6869.825,94.445,492.869,490.512,0.0
53863.0,STARLINK-4788,PAYLOAD,2022-12-30 14:00:01,15.24098677,0.0001514,53.2172,114.9379,45.0732,321.9088,-0.051196,-0.01161541,0.0,0 STARLINK-4788,1 53863U 22114AX  22364.58334491 -.01161541  00000-0 -51196-1 0  9993,2 53863  53.2172 114.9379 0001514  45.0732 321.9088 15.24098677  1307,6871.63,94.482,494.536,492.455,0.0
53863.0,STARLINK-4788,PAYLOAD,2022-12-31 08:00:01,15.22259398,0.0001972,53.2174,111.4945,36.2525,125.5613,-0.0534409999999999,-0.01148851,0.0,0 STARLINK-4788,1 53863U 22114AX  22365.33334491 -.01148851  00000-0 -53441-1 0  9991,2 53863  53.2174 111.4945 0001972  36.2525 125.5613 15.22259398 16787,6877.1640000000025,94.596,500.385,497.673,0.0
53863.0,STARLINK-4788,PAYLOAD,2022-12-31 14:00:01,15.2167985,0.0001841999999999,53.2173,110.3509,43.0156,49.292,-0.0566429999999999,-0.01193125,0.0,0 STARLINK-4788,1 53863U 22114AX  22365.58334491 -.01193125  00000-0 -56643-1 0  9999,2 53863  53.2173 110.3509 0001842  43.0156  49.2920 15.21679850  1305,6878.91,94.632,502.042,499.508,0.0
53863.0,STARLINK-4788,PAYLOAD,2022-12-31 22:00:00,15.20842694,0.000192,53.2169,108.8253,35.4542,83.3545,-0.056298,-0.01159711,0.0,0 STARLINK-4788,1 53863U 22114AX  22365.91667824 -.01159711  00000-0 -56298-1 0  9994,2 53863  53.2169 108.8253 0001920  35.4542  83.3545 15.20842694  1308,6881.434,94.684,504.621,501.978,0.0
53863.0,STARLINK-4788,PAYLOAD,2023-01-01 10:00:00,15.19618347,0.0006422999999999,53.2175,106.5403,270.7478,65.9643,-0.05807,-0.01155667,0.0,0 STARLINK-4788,1 53863U 22114AX  23001.41667824 -.01155667  00000-0 -58070-1 0  9993,2 53863  53.2175 106.5403 0006423 270.7478  65.9643 15.19618347 16947,6885.13,94.761,511.417,502.573,0.0
53863.0,STARLINK-4788,PAYLOAD,2023-01-01 14:00:01,15.19244495,0.0001518,53.2173,105.781,38.8025,130.0378,-0.0612889999999999,-0.01201065,0.0,0 STARLINK-4788,1 53863U 22114AX  23001.58334491 -.01201065  00000-0 -61289-1 0  9992,2 53863  53.2173 105.7810 0001518  38.8025 130.0378 15.19244495  1301,6886.26,94.784,509.17,507.079,0.0
53863.0,STARLINK-4788,PAYLOAD,2023-01-01 16:00:00,15.19001984,0.0001505,53.2175,105.4011,46.2842,218.5551,-0.058633,-0.01145504,0.0,0 STARLINK-4788,1 53863U 22114AX  23001.66667824 -.01145504  00000-0 -58633-1 0  9994,2 53863  53.2175 105.4011 0001505  46.2842 218.5551 15.19001984 16988,6886.993,94.799,509.894,507.821,0.0
53863.0,STARLINK-4788,PAYLOAD,2023-01-02 00:00:00,15.18190319,0.0001467,53.2174,103.8806,53.9003,234.2507,-0.060238,-0.01149116,0.0,0 STARLINK-4788,1 53863U 22114AX  23002.00001157 -.01149116  00000-0 -60238-1 0  9991,2 53863  53.2174 103.8806 0001467  53.9003 234.2507 15.18190319  1308,6889.446999999999,94.85,512.323,510.301,0.0
53863.0,STARLINK-4788,PAYLOAD,2023-01-02 14:00:01,15.16774774,0.0001527,53.2174,101.228,57.1039,179.4845,-0.063415,-0.01160329,0.0,0 STARLINK-4788,1 53863U 22114AX  23002.58334491 -.01160329  00000-0 -63415-1 0  9993,2 53863  53.2174 101.2280 0001527  57.1039 179.4845 15.16774774 17121,6893.733,94.938,516.65,514.545,0.0
53863.0,STARLINK-4788,PAYLOAD,2023-01-02 22:00:00,15.15956212,0.0001663,53.2172,99.7135,46.8225,210.3914,-0.064541,-0.01154063,0.0,0 STARLINK-4788,1 53863U 22114AX  23002.91667824 -.01154063  00000-0 -64541-1 0  9998,2 53863  53.2172  99.7135 0001663  46.8225 210.3914 15.15956212  1305,6896.214,94.99,519.226,516.932,0.0
53863.0,STARLINK-4788,PAYLOAD,2023-01-03 14:00:01,15.14331785,0.0001468,53.2176,96.6923,56.4956,239.0275,-0.06782,-0.01157488,0.0,0 STARLINK-4788,1 53863U 22114AX  23003.58334491 -.01157488  00000-0 -67820-1 0  9990,2 53863  53.2176  96.6923 0001468  56.4956 239.0275 15.14331785  1300,6901.145,95.091,524.023,521.997,0.0
